STARLINK-2717           
1 48659U 21044X   26068.53433209  .00002476  00000+0  95678-4 0  9991
2 48659  53.1579 114.5637 0001526  77.6748 282.4423 15.30209793263807
TEVEL2-6                
1 63215U 25052F   26068.64958975  .00021046  00000+0  70909-3 0  9996
2 63215  97.4016 325.0381 0004769  95.6604 264.5181 15.30760889 54861
